NORAD_CAT_ID,OBJECT_NAME,OBJECT_TYPE,EPOCH,MEAN_MOTION,ECCENTRICITY,INCLINATION,RA_OF_ASC_NODE,ARG_OF_PERICENTER,MEAN_ANOMALY,BSTAR,MEAN_MOTION_DOT,MEAN_MOTION_DDOT,TLE_LINE0,TLE_LINE1,TLE_LINE2,SEMIMAJOR_AXIS,PERIOD,APOGEE,PERIGEE,DECAYED
52704.0,STARLINK-3999,PAYLOAD,2023-09-02 11:25:18,15.08840235,0.0001378,53.2166,300.6342,81.5073,278.6076,7.2913e-05,8.73e-06,0.0,0 STARLINK-3999,1 52704U 22053BA  23245.47590928  .00000873  00000-0  72913-4 0  9994,2 52704  53.2166 300.6342 0001378  81.5073 278.6076 15.08840235 72544,6917.88,95.438,540.698,538.791,0.0
52704.0,STARLINK-3999,PAYLOAD,2023-09-02 20:57:37,15.08843928,0.0001348,53.2166,298.8505,82.8987,277.2159,9.5824e-05,1.238e-05,0.0,0 STARLINK-3999,1 52704U 22053BA  23245.87334601  .00001238  00000-0  95824-4 0  9994,2 52704  53.2166 298.8505 0001348  82.8987 277.2159 15.08843928 72604,6917.868,95.437,540.666,538.801,0.0
52704.0,STARLINK-3999,PAYLOAD,2023-09-03 11:16:05,15.08847805,0.0001379,53.2165,296.174,84.2575,275.8574,7.395e-05,8.89e-06,0.0,0 STARLINK-3999,1 52704U 22053BA  23246.46950340  .00000889  00000-0  73950-4 0  9991,2 52704  53.2165 296.1740 0001379  84.2575 275.8574 15.08847805 72690,6917.857,95.437,540.676,538.768,0.0
52704.0,STARLINK-3999,PAYLOAD,2023-09-04 03:09:57,15.08832879,0.0001534,53.2159,293.2004,79.6544,280.4621,-2.5309e-05,-6.91e-06,0.0,0 STARLINK-3999,1 52704U 22053BA  23247.13191669 -.00000691  00000-0 -25309-4 0  9995,2 52704  53.2159 293.2004 0001534  79.6544 280.4621 15.08832879 72365,6917.902,95.438,540.828,538.706,0.0
52704.0,STARLINK-3999,PAYLOAD,2023-09-04 12:42:16,15.08830468,0.0001479,53.2176,291.4143,85.2341,274.882,-8.8835e-05,-1.701e-05,0.0,0 STARLINK-3999,1 52704U 22053BA  23247.52936208 -.00001701  00000-0 -88835-4 0  9990,2 52704  53.2176 291.4143 0001479  85.2341 274.8820 15.08830468 72858,6917.91,95.438,540.798,538.751,0.0
52704.0,STARLINK-3999,PAYLOAD,2023-09-05 03:00:44,15.08835721,0.0001459,53.2176,288.7382,86.6307,273.4852,9.211e-06,-1.41e-06,0.0,0 STARLINK-3999,1 52704U 22053BA  23248.12551806 -.00000141  00000-0  92110-5 0  9992,2 52704  53.2176 288.7382 0001459  86.6307 273.4852 15.08835721 72944,6917.893,95.438,540.768,538.749,0.0
52704.0,STARLINK-3999,PAYLOAD,2023-09-06 02:51:31,15.08836664,0.0001508,53.2172,284.2776,83.5711,276.5453,0.00017624,2.518e-05,0.0,0 STARLINK-3999,1 52704U 22053BA  23249.11911401  .00002518  00000-0  17624-3 0  9997,2 52704  53.2172 284.2776 0001508  83.5711 276.5453 15.08836664 72665,6917.891,95.438,540.799,538.712,0.0
52704.0,STARLINK-3999,PAYLOAD,2023-09-06 18:45:22,15.08840852,0.0001464,53.2168,281.3049,76.8833,283.2323,0.00013121,1.801e-05,0.0,0 STARLINK-3999,1 52704U 22053BA  23249.78151447  .00001801  00000-0  13121-3 0  9998,2 52704  53.2168 281.3049 0001464  76.8833 283.2323 15.08840852 73196,6917.878,95.438,540.756,538.73,0.0
52704.0,STARLINK-3999,PAYLOAD,2023-09-07 02:42:19,15.08836859,0.0001466,53.2165,279.8206,78.4864,281.6292,3.8325e-05,3.22e-06,0.0,0 STARLINK-3999,1 52704U 22053BA  23250.11272021  .00000322  00000-0  38325-4 0  9990,2 52704  53.2165 279.8206 0001466  78.4864 281.6292 15.08836859 72811,6917.89,95.438,540.769,538.741,0.0
52704.0,STARLINK-3999,PAYLOAD,2023-09-07 12:14:37,15.0883939,0.0001459,53.2163,278.0342,85.5137,274.6022,2.8171e-05,1.6e-06,0.0,0 STARLINK-3999,1 52704U 22053BA  23250.51015852  .00000160  00000-0  28171-4 0  9999,2 52704  53.2163 278.0342 0001459  85.5137 274.6022 15.08839390 73306,6917.882,95.438,540.757,538.738,0.0
52704.0,STARLINK-3999,PAYLOAD,2023-09-08 07:19:14,15.08881679,0.0001372,53.216,274.4641,95.6792,264.4357,-0.00055767,-9.162e-05,0.0,0 STARLINK-3999,1 52704U 22053BA  23251.30502981 -.00009162  00000-0 -55767-3 0  9994,2 52704  53.2160 274.4641 0001372  95.6792 264.4357 15.08881679 72997,6917.753,95.435,540.567,538.669,0.0
52704.0,STARLINK-3999,PAYLOAD,2023-09-09 02:23:53,15.08834546,0.0001489,53.216,270.8959,89.4295,270.6867,5.8211e-05,6.38e-06,0.0,0 STARLINK-3999,1 52704U 22053BA  23252.09992177  .00000638  00000-0  58211-4 0  9996,2 52704  53.2160 270.8959 0001489  89.4295 270.6867 15.08834546 73118,6917.897,95.438,540.792,538.732,0.0
52704.0,STARLINK-3999,PAYLOAD,2023-09-09 08:45:25,15.0883587,0.0001455,53.2159,269.706,82.5554,277.5603,5.0252e-05,5.12e-06,0.0,0 STARLINK-3999,1 52704U 22053BA  23252.36488218  .00000512  00000-0  50252-4 0  9990,2 52704  53.2159 269.7060 0001455  82.5554 277.5603 15.08835870 73587,6917.893,95.438,540.765,538.751,0.0
52704.0,STARLINK-3999,PAYLOAD,2023-09-10 08:36:12,15.08841382,0.0001511,53.2165,265.2457,85.577,274.5395,8.4798e-05,1.062e-05,0.0,0 STARLINK-3999,1 52704U 22053BA  23253.35847930  .00001062  00000-0  84798-4 0  9993,2 52704  53.2165 265.2457 0001511  85.5770 274.5395 15.08841382 73301,6917.876,95.437,540.786,538.696,0.0
52704.0,STARLINK-3999,PAYLOAD,2023-09-11 06:51:36,15.0884036,0.000146,53.2162,261.0831,89.9767,270.1393,6.2452e-05,7.06e-06,0.0,0 STARLINK-3999,1 52704U 22053BA  23254.28584138  .00000706  00000-0  62452-4 0  9991,2 52704  53.2162 261.0831 0001460  89.9767 270.1393 15.08840360 73872,6917.879,95.438,540.754,538.734,0.0
52704.0,STARLINK-3999,PAYLOAD,2023-09-11 17:59:18,15.08841291,0.0001447,53.2162,259.0022,87.7687,272.347,4.435e-05,4.18e-06,0.0,0 STARLINK-3999,1 52704U 22053BA  23254.74952145  .00000418  00000-0  44350-4 0  9996,2 52704  53.2162 259.0022 0001447  87.7687 272.3470 15.08841291 73518,6917.876,95.437,540.742,538.74,0.0
52704.0,STARLINK-3999,PAYLOAD,2023-09-12 06:42:23,15.08845175,0.0001443,53.2161,256.6218,94.6486,265.4671,6.5428e-05,7.54e-06,0.0,0 STARLINK-3999,1 52704U 22053BA  23255.27943759  .00000754  00000-0  65428-4 0  9998,2 52704  53.2161 256.6218 0001443  94.6486 265.4671 15.08845175 74025,6917.865,95.437,540.728,538.731,0.0
52704.0,STARLINK-3999,PAYLOAD,2023-09-13 09:43:56,15.08846429,0.0001469,53.2163,251.5661,97.0261,263.0898,9.3288e-05,1.197e-05,0.0,0 STARLINK-3999,1 52704U 22053BA  23256.40551505  .00001197  00000-0  93288-4 0  9995,2 52704  53.2163 251.5661 0001469  97.0261 263.0898 15.08846429 73767,6917.861,95.437,540.742,538.71,0.0
52704.0,STARLINK-3999,PAYLOAD,2023-09-14 03:13:12,15.08832975,0.0001671,53.2159,248.2912,113.3869,246.7299,-5.9227e-05,-1.23e-05,0.0,0 STARLINK-3999,1 52704U 22053BA  23257.13417056 -.00001230  00000-0 -59227-4 0  9993,2 52704  53.2159 248.2912 0001671 113.3869 246.7299 15.08832975 73871,6917.902,95.438,540.923,538.611,0.0
52704.0,STARLINK-3999,PAYLOAD,2023-09-14 09:34:45,15.08820142,0.0001621,53.217,247.1031,109.2423,250.8745,2.4014e-05,9.4e-07,0.0,0 STARLINK-3999,1 52704U 22053BA  23257.39913783  .00000094  00000-0  24014-4 0  9990,2 52704  53.2170 247.1031 0001621 109.2423 250.8745 15.08820142 73919,6917.941,95.439,540.927,538.685,0.0
52704.0,STARLINK-3999,PAYLOAD,2023-09-14 15:56:17,15.088334,0.0001489,53.2173,245.9176,96.874,263.2421,-1.0698e-05,-4.58e-06,0.0,0 STARLINK-3999,1 52704U 22053BA  23257.66409172 -.00000458  00000-0 -10698-4 0  9991,2 52704  53.2173 245.9176 0001489  96.8740 263.2421 15.08833400 73957,6917.901,95.438,540.796,538.735,0.0
52704.0,STARLINK-3999,PAYLOAD,2023-09-15 06:14:45,15.08846348,0.0001386,53.2168,243.2412,96.1329,263.9821,8.072e-05,9.97e-06,0.0,0 STARLINK-3999,1 52704U 22053BA  23258.26024309  .00000997  00000-0  80720-4 0  9992,2 52704  53.2168 243.2412 0001386  96.1329 263.9821 15.08846348 74044,6917.861,95.437,540.685,538.767,0.0
52704.0,STARLINK-3999,PAYLOAD,2023-09-15 15:47:04,15.08842662,0.0001366,53.2164,241.4571,101.0063,259.1083,4.3929e-05,4.11e-06,0.0,0 STARLINK-3999,1 52704U 22053BA  23258.65768592  .00000411  00000-0  43929-4 0  9995,2 52704  53.2164 241.4571 0001366 101.0063 259.1083 15.08842662 74104,6917.872,95.437,540.682,538.792,0.0
52704.0,STARLINK-3999,PAYLOAD,2023-09-16 09:16:18,15.08843418,0.0001397,53.2165,238.1864,94.6291,265.4861,0.00023364,3.433e-05,0.0,0 STARLINK-3999,1 52704U 22053BA  23259.38632627  .00003433  00000-0  23364-3 0  9992,2 52704  53.2165 238.1864 0001397  94.6291 265.4861 15.08843418 74640,6917.87,95.437,540.701,538.769,0.0
52704.0,STARLINK-3999,PAYLOAD,2023-09-17 07:31:43,15.08842619,0.0001437,53.2168,234.0235,91.5848,268.5308,3.5101e-05,2.71e-06,0.0,0 STARLINK-3999,1 52704U 22053BA  23260.31369217  .00000271  00000-0  35101-4 0  9999,2 52704  53.2168 234.0235 0001437  91.5848 268.5308 15.08842619 74359,6917.872,95.437,540.731,538.743,0.0
52704.0,STARLINK-3999,PAYLOAD,2023-09-18 07:22:28,15.08858521,0.0001455,53.2167,229.5628,82.9473,277.1684,0.00015169,2.128e-05,0.0,0 STARLINK-3999,1 52704U 22053BA  23261.30727752  .00002128  00000-0  15169-3 0  9995,2 52704  53.2167 229.5628 0001455  82.9473 277.1684 15.08858521 74500,6917.824,95.436,540.695,538.682,0.0
52704.0,STARLINK-3999,PAYLOAD,2023-09-19 02:27:07,15.08840369,0.0001698,53.2177,225.9933,72.2759,287.8419,0.00012025,1.626e-05,0.0,0 STARLINK-3999,1 52704U 22053BA  23262.10216891  .00001626  00000-0  12025-3 0  9991,2 52704  53.2177 225.9933 0001698  72.2759 287.8419 15.08840369 74626,6917.879,95.438,540.919,538.57,0.0
52704.0,STARLINK-3999,PAYLOAD,2023-09-19 07:13:15,15.08850749,0.0001322,53.2162,225.1001,99.636,260.4781,0.00013387,1.844e-05,0.0,0 STARLINK-3999,1 52704U 22053BA  23262.30087954  .00001844  00000-0  13387-3 0  9993,2 52704  53.2162 225.1001 0001322  99.6360 260.4781 15.08850749 74658,6917.848,95.437,540.627,538.798,0.0
52704.0,STARLINK-3999,PAYLOAD,2023-09-20 02:17:54,15.08837657,0.0001579,53.2173,221.5301,110.1762,249.94,1.0898e-06,-2.71e-06,0.0,0 STARLINK-3999,1 52704U 22053BA  23263.09577058 -.00000271  00000-0  10898-5 0  9999,2 52704  53.2173 221.5301 0001579 110.1762 249.9400 15.08837657 74778,6917.888,95.438,540.845,538.66,0.0
52704.0,STARLINK-3999,PAYLOAD,2023-09-20 07:04:03,15.08845009,0.0001514,53.2172,220.6397,89.0053,271.1112,-4.336e-05,-9.78e-06,0.0,0 STARLINK-3999,1 52704U 22053BA  23263.29448872 -.00000978  00000-0 -43360-4 0  9996,2 52704  53.2172 220.6397 0001514  89.0053 271.1112 15.08845009 75237,6917.865,95.437,540.777,538.683,0.0
